0 FENGYUN 1C DEB
1 36198U 99025DTX 13282.05902341  .00001622  00000-0  12401-2 0  2615
2 36198 098.6375 136.1589 0107335 251.7320 107.2137 13.92117032273247
0 FENGYUN 1C DEB
1 36198U 99025DTX 13287.37759611  .00001530  00000-0  11707-2 0  2633
2 36198 098.6363 141.1180 0107108 236.9058 122.1785 13.92135028273989
0 FENGYUN 1C DEB
1 36198U 99025DTX 13291.40241759  .00001620  00000-0  12381-2 0  2641
2 36198 098.6357 144.8714 0106984 225.6789 133.5564 13.92149740274542
0 FENGYUN 1C DEB
1 36198U 99025DTX 13293.84604256  .00002051  00000-0  15590-2 0  2651
2 36198 098.6358 147.1496 0106968 218.8466 140.4972 13.92155700274884
